start=new Date('2022-09-21T00:00:00.000Z').valueOf();
sats=[{"OBJECT_ID":"2022-025AP","TLE_LINE1":"1 51993U 22025AP  22263.64610496  .00003028  00000-0  20825-3 0  9992","OBJECT_NAME":"STARLINK-3648","ARG_OF_PERICENTER":"57.6093","CENTER_NAME":"EARTH","REF_FRAME":"TEME","SITE":"AFETR","PERIAPSIS":"538.636","GP_ID":"213124894","PERIOD":"95.437","MEAN_ELEMENT_THEORY":"SGP4","SEMIMAJOR_AXIS":"6917.864","MEAN_MOTION_DOT":"0.00003028","COUNTRY_CODE":"US","ECCENTRICITY":"0.00015800","TLE_LINE2":"2 51993  53.2163 322.6234 0001580  57.6093 302.5052 15.08845493 29932","BSTAR":"0.00020825000000","MEAN_ANOMALY":"302.5052","DECAY_DATE":null,"CLASSIFICATION_TYPE":"U","NORAD_CAT_ID":"51993","OBJECT_TYPE":"PAYLOAD","RA_OF_ASC_NODE":"322.6234","REV_AT_EPOCH":"2993","EPHEMERIS_TYPE":"0","LAUNCH_DATE":"2022-03-09","RCS_SIZE":"LARGE","MEAN_MOTION_DDOT":"0.0000000000000","APOAPSIS":"540.822","EPOCH":"2022-09-20T15:30:23.468544","TIME_SYSTEM":"UTC","INCLINATION":"53.2163","ELEMENT_SET_NO":"999","MEAN_MOTION":"15.08845493","FILE":"3578945"},{"PERIAPSIS":"538.582","GP_ID":"213073154","SEMIMAJOR_AXIS":"6917.929","MEAN_ELEMENT_THEORY":"SGP4","PERIOD":"95.439","ECCENTRICITY":"0.00017510","COUNTRY_CODE":"US","MEAN_MOTION_DOT":"-0.00001082","CENTER_NAME":"EARTH","OBJECT_NAME":"STARLINK-3647","ARG_OF_PERICENTER":"49.1700","OBJECT_ID":"2022-025AQ","TLE_LINE1":"1 51994U 22025AQ  22263.48603636 -.00001082  00000-0 -49938-4 0  9990","REF_FRAME":"TEME","SITE":"AFETR","RCS_SIZE":"LARGE","TIME_SYSTEM":"UTC","APOAPSIS":"541.005","MEAN_MOTION_DDOT":"0.0000000000000","EPOCH":"2022-09-20T11:39:53.541504","INCLINATION":"53.2178","FILE":"3578736","MEAN_MOTION":"15.08824204","ELEMENT_SET_NO":"999","BSTAR":"-0.00004993800000","TLE_LINE2":"2 51994  53.2178 303.3374 0001751  49.1700 310.9444 15.08824204 29767","RA_OF_ASC_NODE":"303.3374","OBJECT_TYPE":"PAYLOAD","NORAD_CAT_ID":"51994","CLASSIFICATION_TYPE":"U","DECAY_DATE":null,"MEAN_ANOMALY":"310.9444","EPHEMERIS_TYPE":"0","LAUNCH_DATE":"2022-03-09","REV_AT_EPOCH":"2976"},{"ARG_OF_PERICENTER":"58.0844","OBJECT_NAME":"STARLINK-3636","TLE_LINE1":"1 51995U 22025AR  22263.49707115  .00000515  00000-0  50475-4 0  9995","OBJECT_ID":"2022-025AR","CENTER_NAME":"EARTH","REF_FRAME":"TEME","SITE":"AFETR","PERIAPSIS":"538.617","GP_ID":"213042544","MEAN_ELEMENT_THEORY":"SGP4","SEMIMAJOR_AXIS":"6917.885","PERIOD":"95.438","MEAN_MOTION_DOT":"0.00000515","ECCENTRICITY":"0.00016380","COUNTRY_CODE":"US","TLE_LINE2":"2 51995  53.2172 303.2771 0001638  58.0844 302.0307 15.08838585 31270","BSTAR":"0.00005047500000","DECAY_DATE":null,"MEAN_ANOMALY":"302.0307","OBJECT_TYPE":"PAYLOAD","NORAD_CAT_ID":"51995","RA_OF_ASC_NODE":"303.2771","CLASSIFICATION_TYPE":"U","EPHEMERIS_TYPE":"0","LAUNCH_DATE":"2022-03-09","REV_AT_EPOCH":"3127","APOAPSIS":"540.883","RCS_SIZE":"LARGE","TIME_SYSTEM":"UTC","MEAN_MOTION_DDOT":"0.0000000000000","EPOCH":"2022-09-20T11:55:46.947360","INCLINATION":"53.2172","ELEMENT_SET_NO":"999","FILE":"3578481","MEAN_MOTION":"15.08838585"},{"PERIAPSIS":"538.694","GP_ID":"213072154","SEMIMAJOR_AXIS":"6917.890","MEAN_ELEMENT_THEORY":"SGP4","PERIOD":"95.438","ECCENTRICITY":"0.00015340","COUNTRY_CODE":"US","MEAN_MOTION_DOT":"0.00000255","CENTER_NAME":"EARTH","OBJECT_NAME":"STARLINK-3538","ARG_OF_PERICENTER":"65.8120","OBJECT_ID":"2022-025AS","TLE_LINE1":"1 51996U 22025AS  22263.41611049  .00000255  00000-0  34089-4 0  9992","REF_FRAME":"TEME","SITE":"AFETR","RCS_SIZE":"LARGE","MEAN_MOTION_DDOT":"0.0000000000000","APOAPSIS":"540.817","EPOCH":"2022-09-20T09:59:11.946336","TIME_SYSTEM":"UTC","INCLINATION":"53.2182","FILE":"3578736","MEAN_MOTION":"15.08836727","ELEMENT_SET_NO":"999","BSTAR":"0.00003408900000","TLE_LINE2":"2 51996  53.2182 303.6510 0001534  65.8120 294.3032 15.08836727 29759","OBJECT_TYPE":"PAYLOAD","NORAD_CAT_ID":"51996","RA_OF_ASC_NODE":"303.6510","CLASSIFICATION_TYPE":"U","DECAY_DATE":null,"MEAN_ANOMALY":"294.3032","EPHEMERIS_TYPE":"0","LAUNCH_DATE":"2022-03-09","REV_AT_EPOCH":"2975"},{"MEAN_MOTION_DDOT":"0.0000000000000","RCS_SIZE":"MEDIUM","APOAPSIS":"540.642","TIME_SYSTEM":"UTC","EPOCH":"2022-09-20T03:53:32.906688","INCLINATION":"53.2166","FILE":"3578736","MEAN_MOTION":"15.08843325","ELEMENT_SET_NO":"999","BSTAR":"0.00005347700000","TLE_LINE2":"2 51997  53.2166 304.7822 0001311  61.6920 298.4204 15.08843325 29708","OBJECT_TYPE":"PAYLOAD","RA_OF_ASC_NODE":"304.7822","NORAD_CAT_ID":"51997","CLASSIFICATION_TYPE":"U","DECAY_DATE":null,"MEAN_ANOMALY":"298.4204","EPHEMERIS_TYPE":"0","LAUNCH_DATE":"2022-03-09","REV_AT_EPOCH":"2970","PERIAPSIS":"538.828","GP_ID":"213072404","MEAN_ELEMENT_THEORY":"SGP4","SEMIMAJOR_AXIS":"6917.870","PERIOD":"95.437","ECCENTRICITY":"0.00013110","COUNTRY_CODE":"US","MEAN_MOTION_DOT":"0.00000563","CENTER_NAME":"EARTH","OBJECT_NAME":"STARLINK-3589","ARG_OF_PERICENTER":"61.6920","TLE_LINE1":"1 51997U 22025AT  22263.16218642  .00000563  00000-0  53477-4 0  9991","OBJECT_ID":"2022-025AT","REF_FRAME":"TEME","SITE":"AFETR"},{"CENTER_NAME":"EARTH","TLE_LINE1":"1 51998U 22025AU  22264.11530456 -.00000054  00000-0  14731-4 0  9994","OBJECT_ID":"2022-025AU","OBJECT_NAME":"STARLINK-3618","ARG_OF_PERICENTER":"65.6194","REF_FRAME":"TEME","SITE":"AFETR","PERIAPSIS":"538.610","GP_ID":"213152732","PERIOD":"95.437","MEAN_ELEMENT_THEORY":"SGP4","SEMIMAJOR_AXIS":"6917.877","COUNTRY_CODE":"US","ECCENTRICITY":"0.00016360","MEAN_MOTION_DOT":"-0.00000054","BSTAR":"0.00001473100000","TLE_LINE2":"2 51998  53.2180 300.4958 0001636  65.6194 294.4968 15.08841153 31371","CLASSIFICATION_TYPE":"U","OBJECT_TYPE":"PAYLOAD","NORAD_CAT_ID":"51998","RA_OF_ASC_NODE":"300.4958","MEAN_ANOMALY":"294.4968","DECAY_DATE":null,"REV_AT_EPOCH":"3137","EPHEMERIS_TYPE":"0","LAUNCH_DATE":"2022-03-09","MEAN_MOTION_DDOT":"0.0000000000000","RCS_SIZE":"LARGE","APOAPSIS":"540.874","TIME_SYSTEM":"UTC","EPOCH":"2022-09-21T02:46:02.313984","INCLINATION":"53.2180","MEAN_MOTION":"15.08841153","FILE":"3579005","ELEMENT_SET_NO":"999"},{"REV_AT_EPOCH":"3137","EPHEMERIS_TYPE":"0","LAUNCH_DATE":"2022-03-09","CLASSIFICATION_TYPE":"U","NORAD_CAT_ID":"51999","OBJECT_TYPE":"PAYLOAD","RA_OF_ASC_NODE":"300.3865","MEAN_ANOMALY":"310.1004","DECAY_DATE":null,"BSTAR":"-0.00011245000000","TLE_LINE2":"2 51999  53.2173 300.3865 0001507  50.0121 310.1004 15.08844234 31375","MEAN_MOTION":"15.08844234","FILE":"3579005","ELEMENT_SET_NO":"999","INCLINATION":"53.2173","RCS_SIZE":"LARGE","APOAPSIS":"540.775","TIME_SYSTEM":"UTC","MEAN_MOTION_DDOT":"0.0000000000000","EPOCH":"2022-09-21T03:24:31.328928","SITE":"AFETR","REF_FRAME":"TEME","CENTER_NAME":"EARTH","TLE_LINE1":"1 51999U 22025AV  22264.14202927 -.00002077  00000-0 -11245-3 0  9991","OBJECT_ID":"2022-025AV","OBJECT_NAME":"STARLINK-3667","ARG_OF_PERICENTER":"50.0121","COUNTRY_CODE":"US","ECCENTRICITY":"0.00015070","MEAN_MOTION_DOT":"-0.00002077","PERIOD":"95.437","MEAN_ELEMENT_THEORY":"SGP4","SEMIMAJOR_AXIS":"6917.867","GP_ID":"213153141","PERIAPSIS":"538.690"},{"MEAN_MOTION":"15.08841710","FILE":"3579005","ELEMENT_SET_NO":"999","INCLINATION":"53.2191","RCS_SIZE":"LARGE","MEAN_MOTION_DDOT":"0.0000000000000","APOAPSIS":"541.023","TIME_SYSTEM":"UTC","EPOCH":"2022-09-21T02:36:49.303872","REV_AT_EPOCH":"3139","EPHEMERIS_TYPE":"0","LAUNCH_DATE":"2022-03-09","CLASSIFICATION_TYPE":"U","RA_OF_ASC_NODE":"300.5321","OBJECT_TYPE":"PAYLOAD","NORAD_CAT_ID":"52000","MEAN_ANOMALY":"307.6326","DECAY_DATE":null,"BSTAR":"-0.00003461700000","TLE_LINE2":"2 52000  53.2191 300.5321 0001854  52.4834 307.6326 15.08841710 31396","COUNTRY_CODE":"US","ECCENTRICITY":"0.00018540","MEAN_MOTION_DOT":"-0.00000839","PERIOD":"95.437","SEMIMAJOR_AXIS":"6917.875","MEAN_ELEMENT_THEORY":"SGP4","GP_ID":"213153137","PERIAPSIS":"538.458","SITE":"AFETR","REF_FRAME":"TEME","CENTER_NAME":"EARTH","TLE_LINE1":"1 52000U 22025AW  22264.10890398 -.00000839  00000-0 -34617-4 0  9999","OBJECT_ID":"2022-025AW","ARG_OF_PERICENTER":"52.4834","OBJECT_NAME":"STARLINK-3653"},{"COUNTRY_CODE":"US","ECCENTRICITY":"0.00015280","MEAN_MOTION_DOT":"-0.00000732","PERIOD":"95.437","MEAN_ELEMENT_THEORY":"SGP4","SEMIMAJOR_AXIS":"6917.875","GP_ID":"213071905","PERIAPSIS":"538.683","SITE":"AFETR","REF_FRAME":"TEME","CENTER_NAME":"EARTH","OBJECT_ID":"2022-025AX","TLE_LINE1":"1 52001U 22025AX  22263.38298755 -.00000732  00000-0 -27893-4 0  9998","ARG_OF_PERICENTER":"67.7125","OBJECT_NAME":"STARLINK-3659","MEAN_MOTION":"15.08841794","FILE":"3578736","ELEMENT_SET_NO":"999","INCLINATION":"53.2202","RCS_SIZE":"LARGE","EPOCH":"2022-09-20T09:11:30.124320","APOAPSIS":"540.797","MEAN_MOTION_DDOT":"0.0000000000000","TIME_SYSTEM":"UTC","REV_AT_EPOCH":"2975","LAUNCH_DATE":"2022-03-09","EPHEMERIS_TYPE":"0","CLASSIFICATION_TYPE":"U","OBJECT_TYPE":"PAYLOAD","NORAD_CAT_ID":"52001","RA_OF_ASC_NODE":"303.7931","MEAN_ANOMALY":"292.4030","DECAY_DATE":null,"BSTAR":"-0.00002789300000","TLE_LINE2":"2 52001  53.2202 303.7931 0001528  67.7125 292.4030 15.08841794 29754"},{"MEAN_MOTION_DOT":"-0.00000853","COUNTRY_CODE":"US","ECCENTRICITY":"0.00017000","PERIOD":"95.438","SEMIMAJOR_AXIS":"6917.886","MEAN_ELEMENT_THEORY":"SGP4","GP_ID":"213043189","PERIAPSIS":"538.575","SITE":"AFETR","REF_FRAME":"TEME","TLE_LINE1":"1 52002U 22025AY  22263.44555182 -.00000853  00000-0 -35493-4 0  9995","OBJECT_ID":"2022-025AY","ARG_OF_PERICENTER":"60.7338","OBJECT_NAME":"STARLINK-3668","CENTER_NAME":"EARTH","ELEMENT_SET_NO":"999","MEAN_MOTION":"15.08838224","FILE":"3578491","INCLINATION":"53.2193","RCS_SIZE":"LARGE","MEAN_MOTION_DDOT":"0.0000000000000","APOAPSIS":"540.927","TIME_SYSTEM":"UTC","EPOCH":"2022-09-20T10:41:35.677248","REV_AT_EPOCH":"3127","LAUNCH_DATE":"2022-03-09","EPHEMERIS_TYPE":"0","MEAN_ANOMALY":"299.3824","DECAY_DATE":null,"CLASSIFICATION_TYPE":"U","NORAD_CAT_ID":"52002","OBJECT_TYPE":"PAYLOAD","RA_OF_ASC_NODE":"303.5070","TLE_LINE2":"2 52002  53.2193 303.5070 0001700  60.7338 299.3824 15.08838224 31278","BSTAR":"-0.00003549300000"}];
